[{"OBJECT_NAME":"STARLINK-6366","OBJECT_ID":"2023-099BE","EPOCH":"2025-12-22T19:41:43.486944","MEAN_MOTION":15.02534263,"ECCENTRICITY":0.0001131,"INCLINATION":43.0031,"RA_OF_ASC_NODE":267.5909,"ARG_OF_PERICENTER":275.9518,"MEAN_ANOMALY":84.1195,"EPHEMERIS_TYPE":0,"CLASSIFICATION_TYPE":"U","NORAD_CAT_ID":57380,"ELEMENT_SET_NO":999,"REV_AT_EPOCH":13573,"BSTAR":3.4182e-5,"MEAN_MOTION_DOT":2.58e-6,"MEAN_MOTION_DDOT":0},{"OBJECT_NAME":"STARLINK-6371","OBJECT_ID":"2023-099BF","EPOCH":"2025-12-22T20:24:30.448224","MEAN_MOTION":15.02534946,"ECCENTRICITY":0.0001065,"INCLINATION":43.0033,"RA_OF_ASC_NODE":280.8096,"ARG_OF_PERICENTER":269.3125,"MEAN_ANOMALY":90.7596,"EPHEMERIS_TYPE":0,"CLASSIFICATION_TYPE":"U","NORAD_CAT_ID":57381,"ELEMENT_SET_NO":999,"REV_AT_EPOCH":13559,"BSTAR":-1.1309e-5,"MEAN_MOTION_DOT":-3.56e-6,"MEAN_MOTION_DDOT":0},{"OBJECT_NAME":"STARLINK-30240","OBJECT_ID":"2023-102A","EPOCH":"2025-12-22T04:15:16.966080","MEAN_MOTION":15.02538177,"ECCENTRICITY":0.00012093,"INCLINATION":43.0043,"RA_OF_ASC_NODE":310.3037,"ARG_OF_PERICENTER":271.1023,"MEAN_ANOMALY":88.9681,"EPHEMERIS_TYPE":0,"CLASSIFICATION_TYPE":"U","NORAD_CAT_ID":57404,"ELEMENT_SET_NO":999,"REV_AT_EPOCH":13457,"BSTAR":7.9846522e-5,"MEAN_MOTION_DOT":8.75e-6,"MEAN_MOTION_DDOT":0},{"OBJECT_NAME":"STARLINK-30192","OBJECT_ID":"2023-102B","EPOCH":"2025-12-22T14:00:01.999872","MEAN_MOTION":15.78212872,"ECCENTRICITY":0.00036703,"INCLINATION":42.9983,"RA_OF_ASC_NODE":285.8346,"ARG_OF_PERICENTER":212.0466,"MEAN_ANOMALY":114.8083,"EPHEMERIS_TYPE":0,"CLASSIFICATION_TYPE":"U","NORAD_CAT_ID":57405,"ELEMENT_SET_NO":999,"REV_AT_EPOCH":595,"BSTAR":0.00086453218,"MEAN_MOTION_DOT":0.00155225,"MEAN_MOTION_DDOT":0},{"OBJECT_NAME":"STARLINK-30195","OBJECT_ID":"2023-102C","EPOCH":"2025-12-22T20:02:58.336224","MEAN_MOTION":15.02535109,"ECCENTRICITY":0.0001101,"INCLINATION":43.0042,"RA_OF_ASC_NODE":306.6364,"ARG_OF_PERICENTER":270.8308,"MEAN_ANOMALY":89.2408,"EPHEMERIS_TYPE":0,"CLASSIFICATION_TYPE":"U","NORAD_CAT_ID":57406,"ELEMENT_SET_NO":999,"REV_AT_EPOCH":13467,"BSTAR":3.4574e-6,"MEAN_MOTION_DOT":-1.57e-6,"MEAN_MOTION_DDOT":0},{"OBJECT_NAME":"STARLINK-30207","OBJECT_ID":"2023-102D","EPOCH":"2025-12-21T20:55:13.174464","MEAN_MOTION":15.02537434,"ECCENTRICITY":0.00010116,"INCLINATION":43.0055,"RA_OF_ASC_NODE":298.5297,"ARG_OF_PERICENTER":264.7418,"MEAN_ANOMALY":95.3309,"EPHEMERIS_TYPE":0,"CLASSIFICATION_TYPE":"U","NORAD_CAT_ID":57407,"ELEMENT_SET_NO":999,"REV_AT_EPOCH":13469,"BSTAR":7.3561153e-5,"MEAN_MOTION_DOT":7.9e-6,"MEAN_MOTION_DDOT":0},{"OBJECT_NAME":"STARLINK-30205","OBJECT_ID":"2023-102E","EPOCH":"2025-12-21T05:31:06.983616","MEAN_MOTION":15.02534299,"ECCENTRICITY":0.0001276,"INCLINATION":43.0055,"RA_OF_ASC_NODE":315.2358,"ARG_OF_PERICENTER":267.4211,"MEAN_ANOMALY":92.6486,"EPHEMERIS_TYPE":0,"CLASSIFICATION_TYPE":"U","NORAD_CAT_ID":57408,"ELEMENT_SET_NO":999,"REV_AT_EPOCH":13443,"BSTAR":6.3737e-5,"MEAN_MOTION_DOT":6.57e-6,"MEAN_MOTION_DDOT":0},{"OBJECT_NAME":"STARLINK-30222","OBJECT_ID":"2023-102F","EPOCH":"2025-12-22T03:36:55.435968","MEAN_MOTION":15.02536358,"ECCENTRICITY":9.365e-5,"INCLINATION":43.0043,"RA_OF_ASC_NODE":310.1034,"ARG_OF_PERICENTER":273.0455,"MEAN_ANOMALY":87.028,"EPHEMERIS_TYPE":0,"CLASSIFICATION_TYPE":"U","NORAD_CAT_ID":57409,"ELEMENT_SET_NO":999,"REV_AT_EPOCH":13457,"BSTAR":2.2208891e-5,"MEAN_MOTION_DOT":9.6e-7,"MEAN_MOTION_DDOT":0},{"OBJECT_NAME":"STARLINK-30172","OBJECT_ID":"2023-102G","EPOCH":"2025-12-22T05:22:13.969056","MEAN_MOTION":15.02538802,"ECCENTRICITY":7.723e-5,"INCLINATION":43.0039,"RA_OF_ASC_NODE":309.7767,"ARG_OF_PERICENTER":276.4426,"MEAN_ANOMALY":83.6329,"EPHEMERIS_TYPE":0,"CLASSIFICATION_TYPE":"U","NORAD_CAT_ID":57410,"ELEMENT_SET_NO":999,"REV_AT_EPOCH":13458,"BSTAR":9.9049553e-5,"MEAN_MOTION_DOT":1.135e-5,"MEAN_MOTION_DDOT":0},{"OBJECT_NAME":"STARLINK-30214","OBJECT_ID":"2023-102H","EPOCH":"2025-12-22T20:36:21.528864","MEAN_MOTION":15.02552851,"ECCENTRICITY":0.0001431,"INCLINATION":43.0036,"RA_OF_ASC_NODE":305.9579,"ARG_OF_PERICENTER":263.2527,"MEAN_ANOMALY":96.8153,"EPHEMERIS_TYPE":0,"CLASSIFICATION_TYPE":"U","NORAD_CAT_ID":57411,"ELEMENT_SET_NO":999,"REV_AT_EPOCH":13463,"BSTAR":0.00010657,"MEAN_MOTION_DOT":1.237e-5,"MEAN_MOTION_DDOT":0},{"OBJECT_NAME":"STARLINK-30182","OBJECT_ID":"2023-102J","EPOCH":"2025-12-22T06:53:09.832704","MEAN_MOTION":15.02540763,"ECCENTRICITY":9.932e-5,"INCLINATION":43.0061,"RA_OF_ASC_NODE":309.4024,"ARG_OF_PERICENTER":269.5633,"MEAN_ANOMALY":90.5096,"EPHEMERIS_TYPE":0,"CLASSIFICATION_TYPE":"U","NORAD_CAT_ID":57412,"ELEMENT_SET_NO":999,"REV_AT_EPOCH":13459,"BSTAR":7.012414e-5,"MEAN_MOTION_DOT":7.44e-6,"MEAN_MOTION_DDOT":0},{"OBJECT_NAME":"STARLINK-30191","OBJECT_ID":"2023-102K","EPOCH":"2025-12-22T02:45:18.215424","MEAN_MOTION":15.27584026,"ECCENTRICITY":5.475e-5,"INCLINATION":42.9979,"RA_OF_ASC_NODE":264.748,"ARG_OF_PERICENTER":253.333,"MEAN_ANOMALY":106.7461,"EPHEMERIS_TYPE":0,"CLASSIFICATION_TYPE":"U","NORAD_CAT_ID":57413,"ELEMENT_SET_NO":999,"REV_AT_EPOCH":13510,"BSTAR":8.5330079e-5,"MEAN_MOTION_DOT":2.087e-5,"MEAN_MOTION_DDOT":0},{"OBJECT_NAME":"STARLINK-30193","OBJECT_ID":"2023-102L","EPOCH":"2025-12-22T03:27:19.742400","MEAN_MOTION":15.02537886,"ECCENTRICITY":9.898e-5,"INCLINATION":43.0047,"RA_OF_ASC_NODE":310.0392,"ARG_OF_PERICENTER":269.9327,"MEAN_ANOMALY":90.1402,"EPHEMERIS_TYPE":0,"CLASSIFICATION_TYPE":"U","NORAD_CAT_ID":57414,"ELEMENT_SET_NO":999,"REV_AT_EPOCH":13457,"BSTAR":3.6445221e-5,"MEAN_MOTION_DOT":2.89e-6,"MEAN_MOTION_DDOT":0},{"OBJECT_NAME":"STARLINK-30208","OBJECT_ID":"2023-102M","EPOCH":"2025-12-22T03:22:31.933632","MEAN_MOTION":15.02540025,"ECCENTRICITY":8.713e-5,"INCLINATION":43.0043,"RA_OF_ASC_NODE":310.0252,"ARG_OF_PERICENTER":275.1336,"MEAN_ANOMALY":84.9407,"EPHEMERIS_TYPE":0,"CLASSIFICATION_TYPE":"U","NORAD_CAT_ID":57415,"ELEMENT_SET_NO":999,"REV_AT_EPOCH":13452,"BSTAR":7.0161791e-5,"MEAN_MOTION_DOT":7.44e-6,"MEAN_MOTION_DDOT":0},{"OBJECT_NAME":"STARLINK-30224","OBJECT_ID":"2023-102N","EPOCH":"2025-12-21T06:33:16.550208","MEAN_MOTION":15.02537119,"ECCENTRICITY":0.0001064,"INCLINATION":43.0062,"RA_OF_ASC_NODE":314.6963,"ARG_OF_PERICENTER":278.4433,"MEAN_ANOMALY":81.6288,"EPHEMERIS_TYPE":0,"CLASSIFICATION_TYPE":"U","NORAD_CAT_ID":57416,"ELEMENT_SET_NO":999,"REV_AT_EPOCH":13444,"BSTAR":4.9339546e-5,"MEAN_MOTION_DOT":4.63e-6,"MEAN_MOTION_DDOT":0},{"OBJECT_NAME":"STARLINK-30043","OBJECT_ID":"2023-102P","EPOCH":"2025-12-21T07:59:24.959328","MEAN_MOTION":15.02524564,"ECCENTRICITY":0.00010897,"INCLINATION":43.0044,"RA_OF_ASC_NODE":314.283,"ARG_OF_PERICENTER":269.1627,"MEAN_ANOMALY":90.9091,"EPHEMERIS_TYPE":0,"CLASSIFICATION_TYPE":"U","NORAD_CAT_ID":57417,"ELEMENT_SET_NO":999,"REV_AT_EPOCH":13445,"BSTAR":0.00020154753,"MEAN_MOTION_DOT":2.519e-5,"MEAN_MOTION_DDOT":0},{"OBJECT_NAME":"STARLINK-30221","OBJECT_ID":"2023-102Q","EPOCH":"2025-12-22T06:24:23.882112","MEAN_MOTION":15.02538152,"ECCENTRICITY":0.00014179,"INCLINATION":43.0053,"RA_OF_ASC_NODE":309.2498,"ARG_OF_PERICENTER":271.3711,"MEAN_ANOMALY":88.6969,"EPHEMERIS_TYPE":0,"CLASSIFICATION_TYPE":"U","NORAD_CAT_ID":57418,"ELEMENT_SET_NO":999,"REV_AT_EPOCH":13459,"BSTAR":5.4193258e-5,"MEAN_MOTION_DOT":5.28e-6,"MEAN_MOTION_DDOT":0},{"OBJECT_NAME":"STARLINK-30189","OBJECT_ID":"2023-105A","EPOCH":"2025-12-22T14:00:01.999872","MEAN_MOTION":15.18409279,"ECCENTRICITY":0.00017785,"INCLINATION":43.0004,"RA_OF_ASC_NODE":318.5164,"ARG_OF_PERICENTER":287.3637,"MEAN_ANOMALY":185.6467,"EPHEMERIS_TYPE":0,"CLASSIFICATION_TYPE":"U","NORAD_CAT_ID":57430,"ELEMENT_SET_NO":999,"REV_AT_EPOCH":555,"BSTAR":0.0012293932,"MEAN_MOTION_DOT":0.00025621,"MEAN_MOTION_DDOT":0},{"OBJECT_NAME":"STARLINK-30188","OBJECT_ID":"2023-105C","EPOCH":"2025-12-22T07:02:24.918144","MEAN_MOTION":15.02540049,"ECCENTRICITY":0.00011656,"INCLINATION":43.0049,"RA_OF_ASC_NODE":322.5908,"ARG_OF_PERICENTER":269.0806,"MEAN_ANOMALY":90.9903,"EPHEMERIS_TYPE":0,"CLASSIFICATION_TYPE":"U","NORAD_CAT_ID":57432,"ELEMENT_SET_NO":999,"REV_AT_EPOCH":13388,"BSTAR":5.9539714e-5,"MEAN_MOTION_DOT":6.01e-6,"MEAN_MOTION_DDOT":0},{"OBJECT_NAME":"STARLINK-30105","OBJECT_ID":"2023-105D","EPOCH":"2025-12-21T16:07:01.989984","MEAN_MOTION":15.27578136,"ECCENTRICITY":0.00014619,"INCLINATION":43.0021,"RA_OF_ASC_NODE":111.4355,"ARG_OF_PERICENTER":276.2387,"MEAN_ANOMALY":83.8298,"EPHEMERIS_TYPE":0,"CLASSIFICATION_TYPE":"U","NORAD_CAT_ID":57433,"ELEMENT_SET_NO":999,"REV_AT_EPOCH":13639,"BSTAR":2.1427925e-5,"MEAN_MOTION_DOT":3.27e-6,"MEAN_MOTION_DDOT":0},{"OBJECT_NAME":"STARLINK-30102","OBJECT_ID":"2023-105E","EPOCH":"2025-12-22T06:52:49.403424","MEAN_MOTION":15.02539142,"ECCENTRICITY":0.00011309,"INCLINATION":43.0041,"RA_OF_ASC_NODE":322.5392,"ARG_OF_PERICENTER":278.0783,"MEAN_ANOMALY":81.9931,"EPHEMERIS_TYPE":0,"CLASSIFICATION_TYPE":"U","NORAD_CAT_ID":57434,"ELEMENT_SET_NO":999,"REV_AT_EPOCH":13386,"BSTAR":4.9845991e-5,"MEAN_MOTION_DOT":4.7e-6,"MEAN_MOTION_DDOT":0},{"OBJECT_NAME":"STARLINK-30183","OBJECT_ID":"2023-105G","EPOCH":"2025-12-22T14:00:01.999872","MEAN_MOTION":15.72238733,"ECCENTRICITY":0.00340054,"INCLINATION":42.9771,"RA_OF_ASC_NODE":259.2461,"ARG_OF_PERICENTER":204.5383,"MEAN_ANOMALY":299.478,"EPHEMERIS_TYPE":0,"CLASSIFICATION_TYPE":"U","NORAD_CAT_ID":57436,"ELEMENT_SET_NO":999,"REV_AT_EPOCH":587,"BSTAR":0.0075496506,"MEAN_MOTION_DOT":0.01190578,"MEAN_MOTION_DDOT":0},{"OBJECT_NAME":"STARLINK-30237","OBJECT_ID":"2023-105H","EPOCH":"2025-12-22T14:00:01.999872","MEAN_MOTION":15.20108643,"ECCENTRICITY":0.00016056,"INCLINATION":43.0005,"RA_OF_ASC_NODE":317.5866,"ARG_OF_PERICENTER":307.7751,"MEAN_ANOMALY":196.7664,"EPHEMERIS_TYPE":0,"CLASSIFICATION_TYPE":"U","NORAD_CAT_ID":57437,"ELEMENT_SET_NO":999,"REV_AT_EPOCH":570,"BSTAR":0.0011336613,"MEAN_MOTION_DOT":0.00024806,"MEAN_MOTION_DDOT":0}]
